start=new Date('2023-01-16T00:00:00.000Z').valueOf();
sats=[{"REF_FRAME":"TEME","SEMIMAJOR_AXIS":"6917.872","COUNTRY_CODE":"US","PERIOD":"95.437","MEAN_MOTION":"15.08842833","ELEMENT_SET_NO":"999","OBJECT_TYPE":"PAYLOAD","MEAN_MOTION_DDOT":"0.0000000000000","ECCENTRICITY":"0.00025350","OBJECT_NAME":"STARLINK-4267","LAUNCH_DATE":"2022-06-17","DECAY_DATE":null,"ARG_OF_PERICENTER":"39.8809","MEAN_MOTION_DOT":"0.00001708","TLE_LINE2":"2 52864  53.2170 142.2613 0002535  39.8809 320.2369 15.08842833 32468","CLASSIFICATION_TYPE":"U","EPHEMERIS_TYPE":"0","BSTAR":"0.00012538000000","MEAN_ELEMENT_THEORY":"SGP4","CENTER_NAME":"EARTH","SITE":"AFETR","TLE_LINE1":"1 52864U 22062AL  23015.66977254  .00001708  00000-0  12538-3 0  9992","RA_OF_ASC_NODE":"142.2613","REV_AT_EPOCH":"3246","MEAN_ANOMALY":"320.2369","NORAD_CAT_ID":"52864","RCS_SIZE":"MEDIUM","OBJECT_ID":"2022-062AL","APOAPSIS":"541.490","EPOCH":"2023-01-15T16:04:28.347456","FILE":"3748322","GP_ID":"223149253","TIME_SYSTEM":"UTC","INCLINATION":"53.2170","PERIAPSIS":"537.983"},{"FILE":"3748322","APOAPSIS":"542.039","EPOCH":"2023-01-15T15:43:17.322240","OBJECT_ID":"2022-062AM","PERIAPSIS":"537.433","INCLINATION":"53.2150","GP_ID":"223149503","TIME_SYSTEM":"UTC","CENTER_NAME":"EARTH","MEAN_ELEMENT_THEORY":"SGP4","RA_OF_ASC_NODE":"142.3487","TLE_LINE1":"1 52865U 22062AM  23015.65506160 -.00000094  00000-0  12242-4 0  9997","SITE":"AFETR","BSTAR":"0.00001224200000","RCS_SIZE":"LARGE","REV_AT_EPOCH":"3246","NORAD_CAT_ID":"52865","MEAN_ANOMALY":"318.7375","DECAY_DATE":null,"MEAN_MOTION_DOT":"-0.00000094","ARG_OF_PERICENTER":"41.3869","LAUNCH_DATE":"2022-06-17","OBJECT_NAME":"STARLINK-4274","CLASSIFICATION_TYPE":"U","EPHEMERIS_TYPE":"0","TLE_LINE2":"2 52865  53.2150 142.3487 0003329  41.3869 318.7375 15.08843030 32462","SEMIMAJOR_AXIS":"6917.871","COUNTRY_CODE":"US","PERIOD":"95.437","REF_FRAME":"TEME","ECCENTRICITY":"0.00033290","OBJECT_TYPE":"PAYLOAD","MEAN_MOTION_DDOT":"0.0000000000000","MEAN_MOTION":"15.08843030","ELEMENT_SET_NO":"999"},{"LAUNCH_DATE":"2022-06-17","OBJECT_NAME":"STARLINK-4272","DECAY_DATE":null,"MEAN_MOTION_DOT":"0.00005417","ARG_OF_PERICENTER":"52.5716","TLE_LINE2":"2 52866  53.2175 142.0070 0002077  52.5716 307.5465 15.08851437 32476","CLASSIFICATION_TYPE":"U","EPHEMERIS_TYPE":"0","REF_FRAME":"TEME","SEMIMAJOR_AXIS":"6917.845","COUNTRY_CODE":"US","PERIOD":"95.437","MEAN_MOTION":"15.08851437","ELEMENT_SET_NO":"999","ECCENTRICITY":"0.00020770","MEAN_MOTION_DDOT":"0.0000000000000","OBJECT_TYPE":"PAYLOAD","EPOCH":"2023-01-15T17:29:15.734112","APOAPSIS":"541.147","OBJECT_ID":"2022-062AN","FILE":"3748322","GP_ID":"223149755","TIME_SYSTEM":"UTC","PERIAPSIS":"538.274","INCLINATION":"53.2175","BSTAR":"0.00035808000000","CENTER_NAME":"EARTH","MEAN_ELEMENT_THEORY":"SGP4","TLE_LINE1":"1 52866U 22062AN  23015.72865433  .00005417  00000-0  35808-3 0  9992","SITE":"AFETR","RA_OF_ASC_NODE":"142.0070","REV_AT_EPOCH":"3247","NORAD_CAT_ID":"52866","MEAN_ANOMALY":"307.5465","RCS_SIZE":"LARGE"},{"EPOCH":"2023-01-15T15:32:41.110656","APOAPSIS":"541.386","OBJECT_ID":"2022-062AP","FILE":"3748322","GP_ID":"223150004","TIME_SYSTEM":"UTC","PERIAPSIS":"538.050","INCLINATION":"53.2142","BSTAR":"0.00009685200000","CENTER_NAME":"EARTH","MEAN_ELEMENT_THEORY":"SGP4","RA_OF_ASC_NODE":"142.3779","TLE_LINE1":"1 52867U 22062AP  23015.64769804  .00001254  00000-0  96852-4 0  9991","SITE":"AFETR","REV_AT_EPOCH":"3246","NORAD_CAT_ID":"52867","MEAN_ANOMALY":"298.1066","RCS_SIZE":"LARGE","LAUNCH_DATE":"2022-06-17","OBJECT_NAME":"STARLINK-4126","DECAY_DATE":null,"ARG_OF_PERICENTER":"62.0170","MEAN_MOTION_DOT":"0.00001254","TLE_LINE2":"2 52867  53.2142 142.3779 0002411  62.0170 298.1066 15.08848988 32460","CLASSIFICATION_TYPE":"U","EPHEMERIS_TYPE":"0","REF_FRAME":"TEME","COUNTRY_CODE":"US","PERIOD":"95.437","SEMIMAJOR_AXIS":"6917.853","MEAN_MOTION":"15.08848988","ELEMENT_SET_NO":"999","ECCENTRICITY":"0.00024110","MEAN_MOTION_DDOT":"0.0000000000000","OBJECT_TYPE":"PAYLOAD"},{"GP_ID":"223148755","TIME_SYSTEM":"UTC","INCLINATION":"53.2163","PERIAPSIS":"538.113","APOAPSIS":"541.304","OBJECT_ID":"2022-062AQ","EPOCH":"2023-01-15T17:20:03.329664","FILE":"3748322","REV_AT_EPOCH":"3247","MEAN_ANOMALY":"307.1898","NORAD_CAT_ID":"52868","RCS_SIZE":"LARGE","BSTAR":"0.00200100000000","MEAN_ELEMENT_THEORY":"SGP4","CENTER_NAME":"EARTH","TLE_LINE1":"1 52868U 22062AQ  23015.72226076  .00031713  00000-0  20010-2 0  9994","RA_OF_ASC_NODE":"142.0421","SITE":"AFETR","TLE_LINE2":"2 52868  53.2163 142.0421 0002307  52.9305 307.1898 15.08852084 32474","CLASSIFICATION_TYPE":"U","EPHEMERIS_TYPE":"0","OBJECT_NAME":"STARLINK-4261","LAUNCH_DATE":"2022-06-17","DECAY_DATE":null,"MEAN_MOTION_DOT":"0.00031713","ARG_OF_PERICENTER":"52.9305","MEAN_MOTION":"15.08852084","ELEMENT_SET_NO":"999","OBJECT_TYPE":"PAYLOAD","MEAN_MOTION_DDOT":"0.0000000000000","ECCENTRICITY":"0.00023070","REF_FRAME":"TEME","COUNTRY_CODE":"US","SEMIMAJOR_AXIS":"6917.843","PERIOD":"95.437"},{"MEAN_MOTION_DDOT":"0.0000000000000","OBJECT_TYPE":"PAYLOAD","ECCENTRICITY":"0.00020300","ELEMENT_SET_NO":"999","MEAN_MOTION":"15.08850899","PERIOD":"95.437","COUNTRY_CODE":"US","SEMIMAJOR_AXIS":"6917.847","REF_FRAME":"TEME","EPHEMERIS_TYPE":"0","CLASSIFICATION_TYPE":"U","TLE_LINE2":"2 52869  53.2176 132.3869 0002030  53.8824 306.2356 15.08850899 32590","ARG_OF_PERICENTER":"53.8824","MEAN_MOTION_DOT":"0.00000018","DECAY_DATE":null,"OBJECT_NAME":"STARLINK-4266","LAUNCH_DATE":"2022-06-17","RCS_SIZE":"LARGE","MEAN_ANOMALY":"306.2356","NORAD_CAT_ID":"52869","REV_AT_EPOCH":"3259","TLE_LINE1":"1 52869U 22062AR  23015.64125729  .00000018  00000-0  19265-4 0  9995","RA_OF_ASC_NODE":"132.3869","SITE":"AFETR","MEAN_ELEMENT_THEORY":"SGP4","CENTER_NAME":"EARTH","BSTAR":"0.00001926500000","INCLINATION":"53.2176","PERIAPSIS":"538.308","TIME_SYSTEM":"UTC","GP_ID":"223149005","FILE":"3748322","APOAPSIS":"541.116","OBJECT_ID":"2022-062AR","EPOCH":"2023-01-15T15:23:24.629856"},{"COUNTRY_CODE":"US","PERIOD":"95.437","SEMIMAJOR_AXIS":"6917.860","REF_FRAME":"TEME","ECCENTRICITY":"0.00026200","MEAN_MOTION_DDOT":"0.0000000000000","OBJECT_TYPE":"PAYLOAD","ELEMENT_SET_NO":"999","MEAN_MOTION":"15.08846581","MEAN_MOTION_DOT":"0.00001695","ARG_OF_PERICENTER":"68.3223","DECAY_DATE":null,"LAUNCH_DATE":"2022-06-17","OBJECT_NAME":"STARLINK-4195","EPHEMERIS_TYPE":"0","CLASSIFICATION_TYPE":"U","TLE_LINE2":"2 52870  53.2167 142.0662 0002620  68.3223 291.8048 15.08846581 32477","RA_OF_ASC_NODE":"142.0662","TLE_LINE1":"1 52870U 22062AS  23015.71761896  .00001695  00000-0  12456-3 0  9992","SITE":"AFETR","CENTER_NAME":"EARTH","MEAN_ELEMENT_THEORY":"SGP4","BSTAR":"0.00012456000000","RCS_SIZE":"LARGE","NORAD_CAT_ID":"52870","MEAN_ANOMALY":"291.8048","REV_AT_EPOCH":"3247","FILE":"3748322","OBJECT_ID":"2022-062AS","APOAPSIS":"541.538","EPOCH":"2023-01-15T17:13:22.278144","PERIAPSIS":"537.913","INCLINATION":"53.2167","TIME_SYSTEM":"UTC","GP_ID":"223150255"},{"LAUNCH_DATE":"2022-06-17","OBJECT_NAME":"STARLINK-4207","MEAN_MOTION_DOT":"0.00044028","ARG_OF_PERICENTER":"54.0460","DECAY_DATE":null,"TLE_LINE2":"2 52871  53.2149 132.1486 0001783  54.0460 306.0697 15.08859056 32601","EPHEMERIS_TYPE":"0","CLASSIFICATION_TYPE":"U","REF_FRAME":"TEME","SEMIMAJOR_AXIS":"6917.822","COUNTRY_CODE":"US","PERIOD":"95.436","ELEMENT_SET_NO":"999","MEAN_MOTION":"15.08859056","ECCENTRICITY":"0.00017830","MEAN_MOTION_DDOT":"0.0000000000000","OBJECT_TYPE":"PAYLOAD","EPOCH":"2023-01-15T16:42:54.484416","APOAPSIS":"540.921","OBJECT_ID":"2022-062AT","FILE":"3748322","TIME_SYSTEM":"UTC","GP_ID":"223150504","PERIAPSIS":"538.454","INCLINATION":"53.2149","BSTAR":"0.00276580000000","TLE_LINE1":"1 52871U 22062AT  23015.69646394  .00044028  00000-0  27658-2 0  9991","SITE":"AFETR","RA_OF_ASC_NODE":"132.1486","CENTER_NAME":"EARTH","MEAN_ELEMENT_THEORY":"SGP4","NORAD_CAT_ID":"52871","MEAN_ANOMALY":"306.0697","REV_AT_EPOCH":"3260","RCS_SIZE":"LARGE"},{"OBJECT_TYPE":"PAYLOAD","MEAN_MOTION_DDOT":"0.0000000000000","ECCENTRICITY":"0.00019260","MEAN_MOTION":"15.08843130","ELEMENT_SET_NO":"999","COUNTRY_CODE":"US","SEMIMAJOR_AXIS":"6917.871","PERIOD":"95.437","REF_FRAME":"TEME","CLASSIFICATION_TYPE":"U","EPHEMERIS_TYPE":"0","TLE_LINE2":"2 52873  53.2169 131.8897 0001926  50.4491 309.6671 15.08843130 32618","DECAY_DATE":null,"MEAN_MOTION_DOT":"0.00001508","ARG_OF_PERICENTER":"50.4491","OBJECT_NAME":"STARLINK-4211","LAUNCH_DATE":"2022-06-17","RCS_SIZE":"LARGE","REV_AT_EPOCH":"3261","MEAN_ANOMALY":"309.6671","NORAD_CAT_ID":"52873","MEAN_ELEMENT_THEORY":"SGP4","CENTER_NAME":"EARTH","TLE_LINE1":"1 52873U 22062AV  23015.75533792  .00001508  00000-0  11279-3 0  9996","RA_OF_ASC_NODE":"131.8897","SITE":"AFETR","BSTAR":"0.00011279000000","INCLINATION":"53.2169","PERIAPSIS":"538.403","GP_ID":"223149504","TIME_SYSTEM":"UTC","FILE":"3748322","EPOCH":"2023-01-15T18:07:41.196288","APOAPSIS":"541.068","OBJECT_ID":"2022-062AV"},{"ELEMENT_SET_NO":"999","MEAN_MOTION":"15.08858678","ECCENTRICITY":"0.00019090","OBJECT_TYPE":"PAYLOAD","MEAN_MOTION_DDOT":"0.0000000000000","REF_FRAME":"TEME","PERIOD":"95.436","COUNTRY_CODE":"US","SEMIMAJOR_AXIS":"6917.823","TLE_LINE2":"2 52874  53.2165 132.1308 0001909  52.2010 307.9154 15.08858678 32603","EPHEMERIS_TYPE":"0","CLASSIFICATION_TYPE":"U","LAUNCH_DATE":"2022-06-17","OBJECT_NAME":"STARLINK-4210","ARG_OF_PERICENTER":"52.2010","MEAN_MOTION_DOT":"0.00000141","DECAY_DATE":null,"NORAD_CAT_ID":"52874","MEAN_ANOMALY":"307.9154","REV_AT_EPOCH":"3260","RCS_SIZE":"LARGE","BSTAR":"0.00002696000000","RA_OF_ASC_NODE":"132.1308","TLE_LINE1":"1 52874U 22062AW  23015.70013349  .00000141  00000-0  26960-4 0  9999","SITE":"AFETR","CENTER_NAME":"EARTH","MEAN_ELEMENT_THEORY":"SGP4","TIME_SYSTEM":"UTC","GP_ID":"223149756","PERIAPSIS":"538.368","INCLINATION":"53.2165","APOAPSIS":"541.009","EPOCH":"2023-01-15T16:48:11.533536","OBJECT_ID":"2022-062AW","FILE":"3748322"}];
